CCSDS_OMM_VERS = 2.0
CREATION_DATE  = 
ORIGINATOR     = 

OBJECT_NAME    = SL-16 R/B
OBJECT_ID      = 1998-043G
CENTER_NAME    = EARTH
REF_FRAME      = TEME
TIME_SYSTEM    = UTC
MEAN_ELEMENT_THEORY = SGP/SGP4

EPOCH          = 2026-01-03T18:14:13.263072
MEAN_MOTION    = 14.26031917
ECCENTRICITY   = .00094436
INCLINATION    = 98.8154
RA_OF_ASC_NODE = 316.7046
ARG_OF_PERICENTER = 197.2134
MEAN_ANOMALY   = 162.8726

EPHEMERIS_TYPE = 0
CLASSIFICATION_TYPE = U
NORAD_CAT_ID   = 25400
ELEMENT_SET_NO = 999
REV_AT_EPOCH   = 42973
BSTAR          = .75297469E-4
MEAN_MOTION_DOT = .135E-5
MEAN_MOTION_DDOT = 0

CCSDS_OMM_VERS = 2.0
CREATION_DATE  = 
ORIGINATOR     = 

OBJECT_NAME    = SL-16 R/B
OBJECT_ID      = 1998-045B
CENTER_NAME    = EARTH
REF_FRAME      = TEME
TIME_SYSTEM    = UTC
MEAN_ELEMENT_THEORY = SGP/SGP4

EPOCH          = 2026-01-04T03:44:04.526880
MEAN_MOTION    = 14.16181733
ECCENTRICITY   = .0005517
INCLINATION    = 71.0128
RA_OF_ASC_NODE = 317.2862
ARG_OF_PERICENTER = 138.6015
MEAN_ANOMALY   = 221.5528

EPHEMERIS_TYPE = 0
CLASSIFICATION_TYPE = U
NORAD_CAT_ID   = 25407
ELEMENT_SET_NO = 999
REV_AT_EPOCH   = 41796
BSTAR          = -.25933E-4
MEAN_MOTION_DOT = -.99E-6
MEAN_MOTION_DDOT = 0

CCSDS_OMM_VERS = 2.0
CREATION_DATE  = 
ORIGINATOR     = 

OBJECT_NAME    = ISS (ZARYA)
OBJECT_ID      = 1998-067A
CENTER_NAME    = EARTH
REF_FRAME      = TEME
TIME_SYSTEM    = UTC
MEAN_ELEMENT_THEORY = SGP/SGP4

EPOCH          = 2026-01-03T18:58:46.664832
MEAN_MOTION    = 15.49074434
ECCENTRICITY   = .0007553
INCLINATION    = 51.6327
RA_OF_ASC_NODE = 33.2893
ARG_OF_PERICENTER = 337.0786
MEAN_ANOMALY   = 22.9864

EPHEMERIS_TYPE = 0
CLASSIFICATION_TYPE = U
NORAD_CAT_ID   = 25544
ELEMENT_SET_NO = 999
REV_AT_EPOCH   = 54627
BSTAR          = .25095E-3
MEAN_MOTION_DOT = .13445E-3
MEAN_MOTION_DDOT = 0

CCSDS_OMM_VERS = 2.0
CREATION_DATE  = 
ORIGINATOR     = 

OBJECT_NAME    = CZ-4B R/B
OBJECT_ID      = 1999-025C
CENTER_NAME    = EARTH
REF_FRAME      = TEME
TIME_SYSTEM    = UTC
MEAN_ELEMENT_THEORY = SGP/SGP4

EPOCH          = 2026-01-04T02:41:07.028160
MEAN_MOTION    = 14.18250074
ECCENTRICITY   = .0037325
INCLINATION    = 98.6736
RA_OF_ASC_NODE = 49.8880
ARG_OF_PERICENTER = 169.2244
MEAN_ANOMALY   = 244.5614

EPHEMERIS_TYPE = 0
CLASSIFICATION_TYPE = U
NORAD_CAT_ID   = 25732
ELEMENT_SET_NO = 999
REV_AT_EPOCH   = 37901
BSTAR          = .89751E-4
MEAN_MOTION_DOT = .143E-5
MEAN_MOTION_DDOT = 0

CCSDS_OMM_VERS = 2.0
CREATION_DATE  = 
ORIGINATOR     = 

OBJECT_NAME    = OKEAN-O
OBJECT_ID      = 1999-039A
CENTER_NAME    = EARTH
REF_FRAME      = TEME
TIME_SYSTEM    = UTC
MEAN_ELEMENT_THEORY = SGP/SGP4

EPOCH          = 2026-01-04T03:58:01.264224
MEAN_MOTION    = 14.80208339
ECCENTRICITY   = .0001371
INCLINATION    = 97.9569
RA_OF_ASC_NODE = 64.6699
ARG_OF_PERICENTER = 113.2463
MEAN_ANOMALY   = 246.8893

EPHEMERIS_TYPE = 0
CLASSIFICATION_TYPE = U
NORAD_CAT_ID   = 25860
ELEMENT_SET_NO = 999
REV_AT_EPOCH   = 42484
BSTAR          = .17686E-3
MEAN_MOTION_DOT = .1292E-4
MEAN_MOTION_DDOT = 0

CCSDS_OMM_VERS = 2.0
CREATION_DATE  = 
ORIGINATOR     = 

OBJECT_NAME    = SL-16 R/B
OBJECT_ID      = 1999-039B
CENTER_NAME    = EARTH
REF_FRAME      = TEME
TIME_SYSTEM    = UTC
MEAN_ELEMENT_THEORY = SGP/SGP4

EPOCH          = 2026-01-04T03:19:59.411712
MEAN_MOTION    = 14.81626314
ECCENTRICITY   = .0016095
INCLINATION    = 98.0092
RA_OF_ASC_NODE = 63.2881
ARG_OF_PERICENTER = 105.7065
MEAN_ANOMALY   = 254.5924

EPHEMERIS_TYPE = 0
CLASSIFICATION_TYPE = U
NORAD_CAT_ID   = 25861
ELEMENT_SET_NO = 999
REV_AT_EPOCH   = 42730
BSTAR          = .14653E-3
MEAN_MOTION_DOT = .11E-4
MEAN_MOTION_DDOT = 0

CCSDS_OMM_VERS = 2.0
CREATION_DATE  = 
ORIGINATOR     = 

OBJECT_NAME    = DELTA 2 R/B
OBJECT_ID      = 1999-041E
CENTER_NAME    = EARTH
REF_FRAME      = TEME
TIME_SYSTEM    = UTC
MEAN_ELEMENT_THEORY = SGP/SGP4

EPOCH          = 2026-01-03T22:43:35.544288
MEAN_MOTION    = 14.11487760
ECCENTRICITY   = .0504115
INCLINATION    = 51.7589
RA_OF_ASC_NODE = 199.7927
ARG_OF_PERICENTER = 157.2252
MEAN_ANOMALY   = 205.1921

EPHEMERIS_TYPE = 0
CLASSIFICATION_TYPE = U
NORAD_CAT_ID   = 25876
ELEMENT_SET_NO = 999
REV_AT_EPOCH   = 35388
BSTAR          = .47877E-3
MEAN_MOTION_DOT = .2741E-4
MEAN_MOTION_DDOT = 0

CCSDS_OMM_VERS = 2.0
CREATION_DATE  = 
ORIGINATOR     = 

OBJECT_NAME    = HELIOS 1B
OBJECT_ID      = 1999-064A
CENTER_NAME    = EARTH
REF_FRAME      = TEME
TIME_SYSTEM    = UTC
MEAN_ELEMENT_THEORY = SGP/SGP4

EPOCH          = 2026-01-04T03:20:04.041024
MEAN_MOTION    = 14.87396545
ECCENTRICITY   = .0000428
INCLINATION    = 98.1753
RA_OF_ASC_NODE = 264.4696
ARG_OF_PERICENTER = 52.9286
MEAN_ANOMALY   = 307.1968

EPHEMERIS_TYPE = 0
CLASSIFICATION_TYPE = U
NORAD_CAT_ID   = 25977
ELEMENT_SET_NO = 999
REV_AT_EPOCH   = 67566
BSTAR          = .4186E-3
MEAN_MOTION_DOT = .3728E-4
MEAN_MOTION_DDOT = 0

CCSDS_OMM_VERS = 2.0
CREATION_DATE  = 
ORIGINATOR     = 

OBJECT_NAME    = TERRA
OBJECT_ID      = 1999-068A
CENTER_NAME    = EARTH
REF_FRAME      = TEME
TIME_SYSTEM    = UTC
MEAN_ELEMENT_THEORY = SGP/SGP4

EPOCH          = 2026-01-04T02:59:05.326080
MEAN_MOTION    = 14.60932697
ECCENTRICITY   = .0003028
INCLINATION    = 97.9716
RA_OF_ASC_NODE = 59.9838
ARG_OF_PERICENTER = 48.8611
MEAN_ANOMALY   = 338.7920

EPHEMERIS_TYPE = 0
CLASSIFICATION_TYPE = U
NORAD_CAT_ID   = 25994
ELEMENT_SET_NO = 999
REV_AT_EPOCH   = 38565
BSTAR          = .18384E-3
MEAN_MOTION_DOT = .856E-5
MEAN_MOTION_DDOT = 0

CCSDS_OMM_VERS = 2.0
CREATION_DATE  = 
ORIGINATOR     = 

OBJECT_NAME    = SL-16 R/B
OBJECT_ID      = 2000-006B
CENTER_NAME    = EARTH
REF_FRAME      = TEME
TIME_SYSTEM    = UTC
MEAN_ELEMENT_THEORY = SGP/SGP4

EPOCH          = 2026-01-04T02:00:22.190688
MEAN_MOTION    = 14.15815081
ECCENTRICITY   = .0018884
INCLINATION    = 71.0017
RA_OF_ASC_NODE = 233.6784
ARG_OF_PERICENTER = 278.6504
MEAN_ANOMALY   = 81.2480

EPHEMERIS_TYPE = 0
CLASSIFICATION_TYPE = U
NORAD_CAT_ID   = 26070
ELEMENT_SET_NO = 999
REV_AT_EPOCH   = 33941
BSTAR          = .12304E-3
MEAN_MOTION_DOT = .194E-5
MEAN_MOTION_DDOT = 0

CCSDS_OMM_VERS = 2.0
CREATION_DATE  = 
ORIGINATOR     = 

OBJECT_NAME    = TITAN 4B R/B
OBJECT_ID      = 2000-047B
CENTER_NAME    = EARTH
REF_FRAME      = TEME
TIME_SYSTEM    = UTC
MEAN_ELEMENT_THEORY = SGP/SGP4

EPOCH          = 2026-01-04T03:33:58.032576
MEAN_MOTION    = 15.08974252
ECCENTRICITY   = .003743
INCLINATION    = 67.9880
RA_OF_ASC_NODE = 221.9126
ARG_OF_PERICENTER = 117.1603
MEAN_ANOMALY   = 243.3371

EPHEMERIS_TYPE = 0
CLASSIFICATION_TYPE = U
NORAD_CAT_ID   = 26474
ELEMENT_SET_NO = 999
REV_AT_EPOCH   = 38317
BSTAR          = .33107E-3
MEAN_MOTION_DOT = .5196E-4
MEAN_MOTION_DDOT = 0

CCSDS_OMM_VERS = 2.0
CREATION_DATE  = 
ORIGINATOR     = 

OBJECT_NAME    = ENVISAT
OBJECT_ID      = 2002-009A
CENTER_NAME    = EARTH
REF_FRAME      = TEME
TIME_SYSTEM    = UTC
MEAN_ELEMENT_THEORY = SGP/SGP4

EPOCH          = 2025-12-31T22:48:16.847136
MEAN_MOTION    = 14.39007536
ECCENTRICITY   = .0001107
INCLINATION    = 98.3626
RA_OF_ASC_NODE = 316.2065
ARG_OF_PERICENTER = 88.1807
MEAN_ANOMALY   = 295.1197

EPHEMERIS_TYPE = 0
CLASSIFICATION_TYPE = U
NORAD_CAT_ID   = 27386
ELEMENT_SET_NO = 999
REV_AT_EPOCH   = 24943
BSTAR          = .99422E-4
MEAN_MOTION_DOT = .264E-5
MEAN_MOTION_DDOT = 0

