SL-16 R/B               
1 25400U 98043G   26003.75987573  .00000135  00000+0  75297-4 0  9999
2 25400  98.8154 316.7046 0009443 197.2134 162.8726 14.26031917429733
SL-16 R/B               
1 25407U 98045B   26004.15560795 -.00000099  00000+0 -25933-4 0  9999
2 25407  71.0128 317.2862 0005517 138.6015 221.5528 14.16181733417967
ISS (ZARYA)             
1 25544U 98067A   26003.79081788  .00013445  00000+0  25095-3 0  9999
2 25544  51.6327  33.2893 0007553 337.0786  22.9864 15.49074434546274
CZ-4B R/B               
1 25732U 99025C   26004.11188690  .00000143  00000+0  89751-4 0  9991
2 25732  98.6736  49.8880 0037325 169.2244 244.5614 14.18250074379013
OKEAN-O                 
1 25860U 99039A   26004.16529241  .00001292  00000+0  17686-3 0  9997
2 25860  97.9569  64.6699 0001371 113.2463 246.8893 14.80208339424840
SL-16 R/B               
1 25861U 99039B   26004.13888208  .00001100  00000+0  14653-3 0  9995
2 25861  98.0092  63.2881 0016095 105.7065 254.5924 14.81626314427308
DELTA 2 R/B             
1 25876U 99041E   26003.94693917  .00002741  00000+0  47877-3 0  9999
2 25876  51.7589 199.7927 0504115 157.2252 205.1921 14.11487760353885
HELIOS 1B               
1 25977U 99064A   26004.13893566  .00003728  00000+0  41860-3 0  9992
2 25977  98.1753 264.4696 0000428  52.9286 307.1968 14.87396545675664
TERRA                   
1 25994U 99068A   26004.12436720  .00000856  00000+0  18384-3 0  9993
2 25994  97.9716  59.9838 0003028  48.8611 338.7920 14.60932697385659
SL-16 R/B               
1 26070U 00006B   26004.08359017  .00000194  00000+0  12304-3 0  9992
2 26070  71.0017 233.6784 0018884 278.6504  81.2480 14.15815081339414
TITAN 4B R/B            
1 26474U 00047B   26004.14858834  .00005196  00000+0  33107-3 0  9994
2 26474  67.9880 221.9126 0037430 117.1603 243.3371 15.08974252383170
ENVISAT                 
1 27386U 02009A   25365.95019499  .00000264  00000+0  99422-4 0  9995
2 27386  98.3626 316.2065 0001107  88.1807 295.1197 14.39007536249430
